0 COSMOS 2251 DEB
1 33933U 93036EN  18205.85981944 +.00000154 +00000-0 +68862-4 0  9990
2 33933 074.0905 271.1421 0078316 251.2105 108.0536 14.29007578492132
0 COSMOS 2251 DEB
1 33934U 93036EP  18205.71675960 +.00000281 +00000-0 +88123-4 0  9997
2 33934 074.0439 111.9255 0021552 182.8019 177.3022 14.44896261496779
0 COSMOS 2251 DEB
1 33935U 93036EQ  18205.81544494 +.00000583 +00000-0 +12295-3 0  9997
2 33935 074.0089 351.9792 0044705 079.6473 280.9728 14.61193517500228
0 COSMOS 2251 DEB
1 33938U 93036ET  18205.82287144 +.00000211 +00000-0 +76472-4 0  9993
2 33938 074.0487 157.9470 0019371 194.4417 189.1760 14.39198342495343
0 COSMOS 2251 DEB
1 33939U 93036EU  18205.83759765 +.00000750 +00000-0 +22442-3 0  9993
2 33939 074.0264 146.9397 0022240 159.6763 234.1173 14.44476249495530
0 COSMOS 2251 DEB
1 33940U 93036EV  18205.79139168 +.00000285 +00000-0 +93319-4 0  9994
2 33940 074.0468 139.4697 0017817 170.4578 217.9980 14.42721595495807
0 COSMOS 2251 DEB
1 33941U 93036EW  18205.87765182 +.00014262 +00000-0 +50264-3 0  9996
2 33941 073.9733 010.0997 0028092 092.1745 268.2674 15.28909437511212
0 COSMOS 2251 DEB
1 33942U 93036EX  18205.93929705 +.00000063 +00000-0 +31213-4 0  9995
2 33942 074.0364 184.7312 0022293 212.7647 177.9462 14.34878985494178
0 COSMOS 2251 DEB
1 33948U 93036FD  18205.95958670 +.00000073 +00000-0 +36087-4 0  9991
2 33948 074.0346 200.2036 0025159 217.1494 142.7917 14.33147306493577
0 IRIDIUM 33 DEB
1 33956U 97051BR  18205.92283642 +.00005556 +00000-0 +83651-3 0  9997
2 33956 086.4112 105.7889 0042621 002.6507 124.5773 14.73645461248603
0 IRIDIUM 33 DEB
1 33959U 97051BU  18205.79456691 +.00000470 +00000-0 +16014-3 0  9990
2 33959 086.3668 131.3848 0061125 174.3138 185.8765 14.33362860490456
0 IRIDIUM 33 DEB
1 33960U 97051BV  18205.80268712 +.00000842 +00000-0 +22742-3 0  9997
2 33960 086.2725 055.6832 0006196 189.0270 292.8514 14.46730785496635
0 IRIDIUM 33 DEB
1 33962U 97051BX  18205.95218403 +.00002045 +00000-0 +40457-3 0  9997
2 33962 086.3529 077.7382 0016305 227.4700 132.5135 14.61820692498267
0 IRIDIUM 33 DEB
1 33965U 97051CA  18205.67064270 +.00001560 +00000-0 +38992-3 0  9992
2 33965 086.3700 093.8658 0006378 249.0997 110.9525 14.50947081496837
0 IRIDIUM 33 DEB
1 33966U 97051CB  18205.93015019 +.00000309 +00000-0 +90620-4 0  9996
2 33966 086.3968 110.0819 0009639 121.4284 005.8295 14.40604765495394
0 IRIDIUM 33 DEB
1 33967U 97051CC  18205.66739995 +.00001797 +00000-0 +34700-3 0  9991
2 33967 086.3775 090.3318 0043638 181.5420 178.5664 14.62276412498132
0 COSMOS 2251 DEB
1 33971U 93036FE  18205.89617772 +.00000112 +00000-0 +47957-4 0  9997
2 33971 074.0258 175.4830 0020689 213.4642 175.3481 14.35687225493936
0 COSMOS 2251 DEB
1 33973U 93036FG  18205.66583418 +.00000043 +00000-0 +20707-4 0  9990
2 33973 074.0087 086.6383 0048137 192.4052 198.4305 14.43079148496643
0 COSMOS 2251 DEB
1 33980U 93036FP  18205.67264907 +.00000204 +00000-0 +63745-4 0  9996
2 33980 074.0264 084.9038 0036238 169.6218 221.8289 14.46455697497031
0 COSMOS 2251 DEB
1 33982U 93036FR  18205.96760619 +.00000136 +00000-0 +39670-4 0  9995
2 33982 074.0733 043.3195 0088044 072.9131 346.2306 14.51208713499641
0 COSMOS 2251 DEB
1 33983U 93036FS  18205.78347152 +.00000120 +00000-0 +43986-4 0  9997
2 33983 074.0538 125.1610 0024869 185.9576 205.2988 14.42652750496673
0 COSMOS 2251 DEB
1 33986U 93036FV  18205.88287855 +.00000303 +00000-0 +11706-3 0  9991
2 33986 074.0390 216.2924 0049960 232.9272 196.0145 14.33700611492978
0 COSMOS 2251 DEB
1 33989U 93036FY  18205.73083237 +.00000595 +00000-0 +11901-3 0  9996
2 33989 074.0234 326.5273 0039535 087.1262 273.4429 14.63717042501511
0 COSMOS 2251 DEB
1 33990U 93036FZ  18205.65897257 +.00000052 +00000-0 +68219-4 0  9997
2 33990 073.9301 280.1748 0417162 081.5727 065.5179 13.46728535463819
0 COSMOS 2251 DEB
1 33994U 93036GD  18205.82253469 -.00000009 +00000-0 +57039-5 0  9993
2 33994 074.0444 133.3845 0024391 219.2888 170.8699 14.39619883495849
0 COSMOS 2251 DEB
1 33995U 93036GE  18205.72251597 +.00000139 +00000-0 +68587-4 0  9995
2 33995 074.0676 316.6638 0071488 281.6639 077.6491 14.24986182490188
0 COSMOS 2251 DEB
1 33996U 93036GF  18205.80881261 +.00002437 +00000-0 +54763-3 0  9995
2 33996 074.1055 209.6301 0064774 112.3810 248.4234 14.55752087494153
0 COSMOS 2251 DEB
1 34000U 93036GK  18205.71829966 +.00000865 +00000-0 +19978-3 0  9998
2 34000 074.0427 061.6744 0026064 102.0349 010.2052 14.56576649498631
0 COSMOS 2251 DEB
1 34001U 93036GL  18205.93881899 +.00000051 +00000-0 +27228-4 0  9991
2 34001 074.0385 186.9875 0021837 213.8942 176.2806 14.34549724494427
0 COSMOS 2251 DEB
1 34003U 93036GN  18205.79678966 +.00000971 +00000-0 +74488-3 0  9996
2 34003 074.0803 093.8949 0305990 111.6130 251.7882 13.74519059472825
0 COSMOS 2251 DEB
1 34005U 93036GQ  18205.84726847 +.00000011 +00000-0 +12321-4 0  9990
2 34005 074.0463 147.1071 0021747 217.9325 173.4464 14.38453639495811
0 COSMOS 2251 DEB
1 34008U 93036GT  18205.97223307 +.00000032 +00000-0 +21556-4 0  9993
2 34008 074.0324 211.7192 0023286 144.6373 241.2164 14.31609601493477
0 COSMOS 2251 DEB
1 34012U 93036GX  18205.92960743 +.00002823 +00000-0 +62308-3 0  9994
2 34012 074.0269 176.0820 0051835 151.2982 209.1053 14.56981938494656
0 COSMOS 2251 DEB
1 34013U 93036GY  18205.84921898 +.00001741 +00000-0 +28182-3 0  9994
2 34013 074.0213 348.7786 0034580 034.0847 326.2535 14.71719040500802
0 COSMOS 2251 DEB
1 34014U 93036GZ  18205.97110604 +.00000303 +00000-0 +77894-4 0  9992
2 34014 074.0243 018.6715 0052335 111.0526 047.2858 14.53761579499796
0 COSMOS 2251 DEB
1 34015U 93036HA  18205.85739822 +.00000727 +00000-0 +22976-3 0  9999
2 34015 074.0318 158.0668 0032206 193.5251 196.6566 14.41686897495259
0 COSMOS 2251 DEB
1 34017U 93036HC  18205.87232589 +.00007617 +00000-0 +73333-3 0  9999
2 34017 074.0042 009.3136 0018204 352.4012 007.6892 14.92997418499837
0 COSMOS 2251 DEB
1 34019U 93036HE  18205.59759538 +.00000220 +00000-0 +10302-3 0  9998
2 34019 073.9592 277.7542 0070137 329.0370 099.6510 14.24827193490307
0 COSMOS 2251 DEB
1 34020U 93036HF  18205.76817084 +.00001180 +00000-0 +20121-3 0  9996
2 34020 074.0384 324.1255 0037105 025.7427 334.5579 14.69759346501817
0 COSMOS 2251 DEB
1 34021U 93036HG  18205.71331213 +.00000146 +00000-0 +51248-4 0  9993
2 34021 074.0416 112.8778 0023186 204.7700 182.6866 14.43080041496908
0 COSMOS 2251 DEB
1 34022U 93036HH  18205.95908646 +.00000076 +00000-0 +35123-4 0  9996
2 34022 074.0539 182.5609 0024248 205.3328 184.9061 14.35765471494543
0 COSMOS 2251 DEB
1 34024U 93036HK  18205.95994403 +.00000068 +00000-0 +34478-4 0  9997
2 34024 074.0453 206.0669 0022821 206.8320 178.3432 14.32933592493648
0 COSMOS 2251 DEB
1 34028U 93036HP  18205.87064654 +.00000159 +00000-0 +20438-3 0  9999
2 34028 073.8835 153.6333 0552342 021.5775 009.4985 13.18532931454313
0 COSMOS 2251 DEB
1 34029U 93036HQ  18205.79853505 +.00001232 +00000-0 +12017-3 0  9999
2 34029 073.9464 084.3719 0079111 219.6604 139.8777 14.91448679508314
0 COSMOS 2251 DEB
1 34030U 93036HR  18205.91098897 +.00002604 +00000-0 +77015-4 0  9994
2 34030 073.9532 140.7230 0090253 238.4102 157.8862 15.31613582517989
0 COSMOS 2251 DEB
1 34031U 93036HS  18205.92749050 +.00000361 +00000-0 +11731-3 0  9990
2 34031 074.0195 137.9381 0032418 189.0233 287.3752 14.42107773495609
0 COSMOS 2251 DEB
1 34032U 93036HT  18205.90292779 +.00000849 +00000-0 +24552-3 0  9996
2 34032 074.0335 165.2782 0053958 180.4912 210.8454 14.45274934494871
0 COSMOS 2251 DEB
1 34036U 93036HX  18205.96217536 +.00000697 +00000-0 +22035-3 0  9999
2 34036 074.0450 185.3761 0048014 189.4480 170.5778 14.41396876494326
0 COSMOS 2251 DEB
1 34037U 93036HY  18205.85504747 +.00000188 +00000-0 +84317-4 0  9998
2 34037 074.0533 269.6657 0061253 263.7182 095.6987 14.28163291491700
0 COSMOS 2251 DEB
1 34038U 93036HZ  18205.79332469 +.00001171 +00000-0 +29578-3 0  9992
2 34038 074.0643 131.2791 0032124 112.6974 247.7589 14.51835514496558
0 COSMOS 2251 DEB
1 34040U 93036JB  18205.85817071 +.00000461 +00000-0 +41321-3 0  9990
2 34040 073.9591 166.9608 0359714 294.3757 087.8907 13.61485700468270
0 COSMOS 2251 DEB
1 34051U 93036JN  18205.87959651 +.00000858 +00000-0 +13690-3 0  9993
2 34051 073.9868 239.5883 0055464 011.9236 348.3234 14.72637590503751
0 COSMOS 2251 DEB
1 34054U 93036JR  18205.93951667 +.00000631 +00000-0 +14799-3 0  9992
2 34054 074.0377 042.6692 0032915 102.3746 326.6555 14.56294526499051
0 COSMOS 2251 DEB
1 34056U 93036JT  18205.79428918 +.00001185 +00000-0 +64861-3 0  9996
2 34056 074.0673 143.2554 0150930 123.1584 265.2827 14.07314954483615
0 COSMOS 2251 DEB
1 34059U 93036JW  18205.86106058 +.00000333 +00000-0 +11322-3 0  9993
2 34059 074.0438 156.8704 0023395 183.3226 210.1373 14.40217383495331
0 COSMOS 2251 DEB
1 34062U 93036JZ  18205.89424306 +.00000513 +00000-0 +14568-3 0  9994
2 34062 074.0412 166.0911 0141925 199.7353 191.5613 14.42356091494893
0 COSMOS 2251 DEB
1 34064U 93036KB  18205.93201789 +.00000186 +00000-0 +73978-4 0  9996
2 34064 074.0334 192.7141 0025588 203.1321 187.4571 14.35205595493889
0 COSMOS 2251 DEB
1 34066U 93036KD  18205.88372659 +.00000510 +00000-0 +11078-3 0  9990
2 34066 073.9970 248.7503 0262087 325.7681 085.7904 14.41854862490832
0 COSMOS 2251 DEB
1 34069U 93036KG  18205.70800240 +.00000888 +00000-0 +15703-3 0  9993
2 34069 074.0160 306.3683 0039780 041.2731 319.1434 14.68480658501883
0 COSMOS 2251 DEB
1 34070U 93036KH  18205.83955679 +.00000511 +00000-0 +16048-3 0  9992
2 34070 074.0126 150.6157 0040950 191.7784 198.7999 14.42590801495077
0 IRIDIUM 33 DEB
1 34071U 97051CE  18205.68496225 +.00000341 +00000-0 +10316-3 0  9997
2 34071 086.3486 095.1040 0009296 027.5365 332.6324 14.39404587494538
